1 31964U 99025CNR 18210.61960397 +.00000569 +00000-0 +24910-3 0  9990
2 31964 098.7718 276.7948 0049137 055.5036 305.0770 14.27015531289118
1 31965U 99025CNS 18211.03476459  .00000863  00000-0  43909-3 0  9995
2 31965  99.0232 302.0863 0042359 252.2355 107.4194 14.18106225573113
1 31966U 99025CNT 18210.61915434 +.00000209 +00000-0 +67100-4 0  9994
2 31966 098.9767 133.2377 0122994 082.6791 278.8359 14.46197727266878
1 31968U 99025CNV 09304.89192010 +.00000899 +00000-0 +37129-3 0  9999
2 31968 098.9862 332.5378 0090005 210.5467 151.2795 14.27153047124248
1 31971U 99025CNY 18212.34515427  .00001051  00000-0  44097-3 0  9995
2 31971 102.2742  42.1517 0014310   7.4509 116.2101 14.29507798575084
1 31972U 99025CNZ 18211.82195826 -.00000061 +00000-0 -90649-5 0  9993
2 31972 099.0985 163.1829 0077390 295.2936 096.3275 14.05851441571239
1 31973U 99025CPA 18211.44413485 -.00000195  00000-0 -78791-4 0  9997
2 31973  98.3695 283.0897 0106401 139.4505 221.4657 14.13403943573870
1 31974U 99025CPB 18211.80186581 +.00000498 +00000-0 +28870-3 0  9998
2 31974 098.4831 323.7049 0089257 148.8528 002.7434 14.11008816313269
1 31976U 99025CPD 18210.06505939 +.00000941 +00000-0 +29941-3 0  9992
2 31976 100.0035 151.3764 0067043 340.4613 019.4003 14.41615605582965
1 31977U 99025CPE 18204.58283019 +.00000148 +00000-0 +14858-3 0  9995
2 31977 098.2125 343.8061 0300424 350.0029 009.5229 13.71469464553930
1 31978U 99025CPF 18209.83063034 +.00000337 +00000-0 +40905-3 0  9994
2 31978 098.3933 350.7819 0275059 292.0382 065.1756 13.57450876549938
1 31979U 99025CPG 18183.67667362  .00000409  00000-0  48420-3 0  9992
2 31979  99.3517 351.7663 0298418  32.8302 329.0993 13.55831609546579
1 31980U 99025CPH 18209.84410976 +.00000183 +00000-0 +26552-3 0  9990
2 31980 097.5860 236.1057 0435750 167.0721 194.2017 13.29544671538518
1 31981U 99025CPJ 18210.23301290 +.00000196 +00000-0 +30490-3 0  9994
2 31981 098.4193 219.6176 0397488 067.1736 297.0860 13.31561138538571
1 31982U 99025CPK 18211.30068302  .00001055  00000-0  74015-4 0  9995
2 31982  97.5571  30.4610 0147505  18.5254 342.1260 14.98989092600991
1 31983U 99025CPL 18212.10349966  .00000575  00000-0  34033-4 0  9995
2 31983  97.8246 327.9251 0332821   6.5783 353.9637 14.79470521591729
1 31984U 99025CPM 18210.29670574 +.00000065 +00000-0 +50660-4 0  9994
2 31984 098.7580 241.5478 0067115 088.9994 271.8870 14.19305626561396
1 31985U 99025CPN 18211.42125478 +.00000111 +00000-0 +64157-4 0  9997
2 31985 098.2017 282.4695 0159867 204.6009 154.7483 14.18687821574057
1 31986U 99025CPP 18211.30385596 +.00000059 +00000-0 +56511-4 0  9990
2 31986 099.7649 244.2776 0129630 015.6811 344.8315 14.11211550285776
1 31987U 99025CPQ 18211.45197524 +.00000274 +00000-0 +12082-3 0  9992
2 31987 099.0960 032.1272 0066582 098.3416 292.1839 14.30391443577867
1 31988U 99025CPR 18210.65568608  .00000345  00000-0  23485-3 0  9997
2 31988  98.1431 147.1488 0076281 108.1065 252.8431 14.04100544567708
1 31989U 99025CPS 18212.23811610  .00000122  00000-0  12909-3 0  9990
2 31989  99.4634 210.7246 0120553 344.2812  78.0625 13.90130081563995
1 31990U 99025CPT 18212.25791935  .00000061  00000-0  11670-3 0  9997
2 31990  99.2316 353.5764 0262271 202.8541 277.9921 13.56033323552591
1 31991U 99025CPU 18211.11530675 -.00000019  00000-0  35206-4 0  9990
2 31991 100.4483 178.5792 0245388 210.8851 147.7656 13.60532217551174
1 31992U 99025CPV 18207.91071081 +.00000199 +00000-0 +26004-3 0  9998
2 31992 099.1852 096.1950 0553854 057.7068 307.6471 13.19861730534901
1 31993U 99025CPW 18211.47657810  .00001242  00000-0  18219-2 0  9993
2 31993  99.2347  89.5540 0456451 154.0526 208.4270 13.20651379533494
1 31994U 99025CPX 18211.16153615  .00000011  00000-0  33758-4 0  9994
2 31994  98.6498 339.4428 0164310  49.7380 311.8020 13.94754021570295
1 31995U 99025CPY 18208.67702483 +.00000488 +00000-0 +41078-3 0  9991
2 31995 098.4103 164.7460 0144621 171.9847 188.3672 13.87296854255490
1 31996U 99025CPZ 18211.42831631 -.00000256  00000-0 -25742-3 0  9992
2 31996  99.2840 288.9903 0327063  81.7476 282.0605 13.47533982545366
1 31997U 99025CQA 18211.85373945 +.00000450 +00000-0 +58066-3 0  9998
2 31997 102.5224 227.8640 0311583 171.7164 188.9275 13.51679666252418
1 31998U 99025CQB 18211.11294289  .00015082  00000-0  77783-3 0  9995
2 31998 105.5008 180.9161 0033742 130.5573 229.8571 15.16184302594687
1 32005U 04021H   18211.10089883  .00000612  00000-0  56351-3 0  9999
2 32005  71.0960  15.7955 0213976 280.6516  77.0555 13.76755703703703
1 32006U 04021J   18210.88219774 +.00000383 +00000-0 +35411-3 0  9997
2 32006 071.0990 293.3187 0186796 177.4709 182.7389 13.80804702258123
1 32033U 06006L   18205.17568391 -.00000109 +00000-0 -53585-4 0  9991
2 32033 051.6695 086.4493 5107569 275.7897 030.6769 05.25227186217499
1 32036U 06006P   18206.15143347 -.00000104 +00000-0 -27679-4 0  9993
2 32036 051.6905 068.5277 5118847 287.2387 024.5679 05.25598531218544
1 32037U 06006Q   18212.29230110  .00001015  00000-0  40962-3 0  9990
2 32037  51.5899 167.0276 4958056 123.1824 294.3743  5.61009815228381
1 32040U 06006T   18212.18396144  .00000326  00000-0  18902-3 0  9995
2 32040  51.6171 282.7014 5007853  39.1058 348.1636  5.50055296224152
1 32041U 06006U   18052.27072839 +.00001336 +00000-0 +31895-3 0  9998
2 32041 051.7855 349.7431 4506221 235.2563 292.4674 06.41498818231009
1 32044U 06006X   18026.18931859 -.00002437 +00000-0 -10732+0 0  9996
2 32044 051.0968 047.3787 4955821 164.3053 219.5754 04.79906258190997
1 32065U 99057QD  18211.97159259  .00002105  00000-0  28613-3 0  9997
2 32065  98.2906 215.9301 0006943 166.4081 193.7318 14.79924739590158
1 32066U 99057QE  18211.80318465  .00001219  00000-0  23231-3 0  9992
2 32066  98.3474 203.3909 0005634 244.0385 237.7902 14.65861154582987
1 32067U 99057QF  14154.12860017 +.00000137 +00000-0 +53917-4 0  9998
2 32067 098.1628 113.6504 0034846 358.7697 063.5312 14.42165538361474
1 32068U 99057QG  10297.19027138 +.00000643 +00000-0 +23502-3 0  9997
2 32068 098.1708 284.4884 0009118 032.0755 322.3860 14.36048704175456
1 32069U 99057QH  14086.12963755 +.00025109 +00000-0 +63848-2 0  9995
2 32069 098.2873 054.1104 0014579 052.0247 294.9089 14.50578187349441
1 32070U 99057QJ  12352.10236154 +.00012245 +00000-0 +32892-2 0  9997
2 32070 098.2113 319.3565 0008616 093.5074 266.0816 14.48184702291492
1 32071U 99057QK  18211.86471430  .00002446  00000-0  27636-3 0  9992
2 32071  98.2663 242.7649 0003057 104.0471 256.1084 14.87499569590401
1 32072U 99057QL  18211.14541425 +.00000995 +00000-0 +20919-3 0  9990
2 32072 098.3641 193.3702 0007959 330.3379 029.7369 14.61794622243434
1 32075U 99057QP  18211.98803654  .00005745  00000-0  40138-3 0  9993
2 32075  98.2158 278.8843 0003052 134.0178 226.1299 15.05759375589219
1 32077U 99057QR  12105.17251714 +.00003811 +00000-0 +12084-2 0  9996
2 32077 098.2285 079.8109 0004590 154.4270 205.7483 14.40577270247706
1 32079U 99057QT  18211.09006111  .00000108  00000-0  49672-4 0  9993
2 32079  98.5193 156.9275 0005666 187.9411 230.5058 14.38707948583670
1 32080U 99057QU  18211.93507283 +.00008415 +00000-0 +48389-3 0  9996
2 32080 098.2326 274.5942 0006967 038.8397 321.3332 15.12742492263964
1 32081U 99057QV  18211.80649454  .00003124  00000-0  37977-3 0  9993
2 32081  98.2389 200.6605 0014843 162.9472 197.2243 14.84182849588351
1 32082U 99057QW  18210.97963799  .00004734  00000-0  39822-3 0  9991
2 32082  98.2467 272.2215 0008304 138.4691 221.7163 14.98765333590400
1 32084U 99057QY  18211.23362649  .00001326  00000-0  23610-3 0  9992
2 32084  98.3335 206.9678 0001489 313.7117 102.7370 14.68775363603361
1 32085U 99057QZ  18211.86154416 +.00001924 +00000-0 +27595-3 0  9993
2 32085 098.2938 236.1597 0001991 216.2823 143.8252 14.77735503587991
1 32086U 99025CQC 18212.17949291  .00000878  00000-0  89731-3 0  9994
2 32086  99.2746 357.0372 0326758 212.1628 145.9206 13.58132499546049
1 32087U 99025CQD 18208.47729783 +.00001835 +00000-0 +25991-3 0  9997
2 32087 098.6206 293.9944 0103825 020.7483 339.7892 14.74823356581329
1 32088U 99025CQE 18211.36940383 +.00000211 +00000-0 +42727-3 0  9994
2 32088 102.3922 273.3000 0441150 297.4837 058.2079 13.17421571243284
1 32089U 99025CQF 18210.92800666  .00000191  00000-0  12766-3 0  9992
2 32089  98.8631 254.3603 0121113 191.0149 168.8365 14.08614018566610
1 32090U 99025CQG 18211.07385508 +.00000646 +00000-0 +31363-3 0  9993
2 32090 098.9916 303.6439 0070963 106.1406 017.2802 14.20543836245758
1 32092U 99025CQJ 18211.35407299 +.00000596 +00000-0 +32808-3 0  9997
2 32092 098.9346 266.1958 0035565 250.0697 109.6643 14.15230878328086
1 32093U 99025CQK 18211.52070354 +.00000145 +00000-0 +69367-4 0  9996
2 32093 098.7522 320.9747 0085955 319.1906 040.2860 14.31294356579587
1 32094U 99025CQL 18211.04979229  .00000064  00000-0  63649-4 0  9990
2 32094  98.8434 245.4215 0035510 311.9151  77.5261 14.07538121567237
1 32095U 99025CQM 18211.33509083  .00000064  00000-0  56284-4 0  9997
2 32095  98.9116 240.3361 0080809 201.2946 158.4857 14.13347177568895
1 32096U 99025CQN 18207.07838124 +.00000278 +00000-0 +26735-3 0  9999
2 32096 099.3009 248.2180 0142173 176.3009 183.9231 13.84121659555609
1 32097U 99025CQP 18210.33002194 +.00000735 +00000-0 +84828-4 0  9999
2 32097 099.1069 346.5921 0131631 060.4605 300.9653 14.83596691587573
1 32098U 99025CQQ 18211.90524435 +.00000056 +00000-0 +42705-4 0  9995
2 32098 098.7217 245.7559 0204644 304.3404 053.8556 14.15993718261024
1 32099U 99025CQR 18211.50867164  .00000317  00000-0  19326-3 0  9993
2 32099  98.3094  96.6507 0377593 126.5673 356.5631 13.81119821564307
1 32101U 99025CQT 18211.94780721 +.00000419 +00000-0 +34897-3 0  9991
2 32101 099.1159 122.9800 0145399 009.5127 350.8732 13.89245520557093
1 32102U 99025CQU 18211.84038444 +.00004818 +00000-0 +64535-3 0  9998
2 32102 099.3337 173.6384 0118027 110.9944 281.0372 14.75242963550931
1 32103U 99025CQV 18211.51420319  .00001707  00000-0  30887-3 0  9996
2 32103  96.7147  92.1493 0080220  85.9901  32.7154 14.65207932593353
